{
    "week": 293,
    "satellites": [
        {
            "Name": "COSMOS 2433 (720)",
            "Line1": "1 32275U 07052A   24327.35903381 -.00000048  00000+0  00000+0 0  9994",
            "Line2": "2 32275  65.8718 335.1108 0005826 251.6656 108.3033  2.13104117132878",
            "SatelliteNumber": "32275",
            "Classification": "U",
            "LaunchYear": "07",
            "LaunchNumber": "052",
            "PieceOfLaunch": "A",
            "EpochYear": "24",
            "EpochDay": 327.35903381,
            "FirstDerivativeMeanMotion": -4.8e-07,
            "SecondDerivativeMeanMotion": "00000+0",
            "BSTAR": "00000+0",
            "SetNumber": "999",
            "Inclination": 65.8718,
            "RAAN": 335.1108,
            "Eccentricity": 0.0005826,
            "ArgumentOfPerigee": 251.6656,
            "MeanAnomaly": 108.3033,
            "MeanMotion": 2.13104117,
            "RevolutionNumber": "13287"
        },
        {
            "Name": "COSMOS 2432 (719)",
            "Line1": "1 32276U 07052B   24327.45653569 -.00000048  00000+0  00000+0 0  9996",
            "Line2": "2 32276  65.8870 335.2243 0011269 310.4077  70.0781  2.13103235132907",
            "SatelliteNumber": "32276",
            "Classification": "U",
            "LaunchYear": "07",
            "LaunchNumber": "052",
            "PieceOfLaunch": "B",
            "EpochYear": "24",
            "EpochDay": 327.45653569,
            "FirstDerivativeMeanMotion": -4.8e-07,
            "SecondDerivativeMeanMotion": "00000+0",
            "BSTAR": "00000+0",
            "SetNumber": "999",
            "Inclination": 65.887,
            "RAAN": 335.2243,
            "Eccentricity": 0.0011269,
            "ArgumentOfPerigee": 310.4077,
            "MeanAnomaly": 70.0781,
            "MeanMotion": 2.13103235,
            "RevolutionNumber": "13290"
        },
        {
            "Name": "COSMOS 2434 (721)",
            "Line1": "1 32393U 07065A   24326.36021914 -.00000002  00000+0  00000+0 0  9992",
            "Line2": "2 32393  64.3154 211.2546 0003776  69.9793 135.7571  2.13101326131566",
            "SatelliteNumber": "32393",
            "Classification": "U",
            "LaunchYear": "07",
            "LaunchNumber": "065",
            "PieceOfLaunch": "A",
            "EpochYear": "24",
            "EpochDay": 326.36021914,
            "FirstDerivativeMeanMotion": -2e-08,
            "SecondDerivativeMeanMotion": "00000+0",
            "BSTAR": "00000+0",
            "SetNumber": "999",
            "Inclination": 64.3154,
            "RAAN": 211.2546,
            "Eccentricity": 0.0003776,
            "ArgumentOfPerigee": 69.9793,
            "MeanAnomaly": 135.7571,
            "MeanMotion": 2.13101326,
            "RevolutionNumber": "13156"
        },
        {
            "Name": "COSMOS 2436 (723)",
            "Line1": "1 32395U 07065C   24327.57845675 -.00000004  00000+0  00000+0 0  9998",
            "Line2": "2 32395  64.3241 211.2797 0017257   5.8870 189.1653  2.13100094131540",
            "SatelliteNumber": "32395",
            "Classification": "U",
            "LaunchYear": "07",
            "LaunchNumber": "065",
            "PieceOfLaunch": "C",
            "EpochYear": "24",
            "EpochDay": 327.57845675,
            "FirstDerivativeMeanMotion": -4e-08,
            "SecondDerivativeMeanMotion": "00000+0",
            "BSTAR": "00000+0",
            "SetNumber": "999",
            "Inclination": 64.3241,
            "RAAN": 211.2797,
            "Eccentricity": 0.0017257,
            "ArgumentOfPerigee": 5.887,
            "MeanAnomaly": 189.1653,
            "MeanMotion": 2.13100094,
            "RevolutionNumber": "13154"
        },
        {
            "Name": "COSMOS 2456 (730)",
            "Line1": "1 36111U 09070A   24326.83470788  .00000019  00000+0  00000+0 0  9998",
            "Line2": "2 36111  64.6901  90.5495 0001991 302.5326  61.7697  2.13103636116237",
            "SatelliteNumber": "36111",
            "Classification": "U",
            "LaunchYear": "09",
            "LaunchNumber": "070",
            "PieceOfLaunch": "A",
            "EpochYear": "24",
            "EpochDay": 326.83470788,
            "FirstDerivativeMeanMotion": 1.9e-07,
            "SecondDerivativeMeanMotion": "00000+0",
            "BSTAR": "00000+0",
            "SetNumber": "999",
            "Inclination": 64.6901,
            "RAAN": 90.5495,
            "Eccentricity": 0.0001991,
            "ArgumentOfPerigee": 302.5326,
            "MeanAnomaly": 61.7697,
            "MeanMotion": 2.13103636,
            "RevolutionNumber": "11623"
        },
        {
            "Name": "COSMOS 2457 (733)",
            "Line1": "1 36112U 09070B   24326.65193789  .00000019  00000+0  00000+0 0  9992",
            "Line2": "2 36112  64.6749  90.4110 0005802 153.0749 203.6959  2.13101079116220",
            "SatelliteNumber": "36112",
            "Classification": "U",
            "LaunchYear": "09",
            "LaunchNumber": "070",
            "PieceOfLaunch": "B",
            "EpochYear": "24",
            "EpochDay": 326.65193789,
            "FirstDerivativeMeanMotion": 1.9e-07,
            "SecondDerivativeMeanMotion": "00000+0",
            "BSTAR": "00000+0",
            "SetNumber": "999",
            "Inclination": 64.6749,
            "RAAN": 90.411,
            "Eccentricity": 0.0005802,
            "ArgumentOfPerigee": 153.0749,
            "MeanAnomaly": 203.6959,
            "MeanMotion": 2.13101079,
            "RevolutionNumber": "11622"
        },
        {
            "Name": "COSMOS 2460 (732)",
            "Line1": "1 36402U 10007C   24327.22215074 -.00000048  00000+0  00000+0 0  9995",
            "Line2": "2 36402  65.7252 333.7532 0002996 265.3805 162.7852  2.13106275114548",
            "SatelliteNumber": "36402",
            "Classification": "U",
            "LaunchYear": "10",
            "LaunchNumber": "007",
            "PieceOfLaunch": "C",
            "EpochYear": "24",
            "EpochDay": 327.22215074,
            "FirstDerivativeMeanMotion": -4.8e-07,
            "SecondDerivativeMeanMotion": "00000+0",
            "BSTAR": "00000+0",
            "SetNumber": "999",
            "Inclination": 65.7252,
            "RAAN": 333.7532,
            "Eccentricity": 0.0002996,
            "ArgumentOfPerigee": 265.3805,
            "MeanAnomaly": 162.7852,
            "MeanMotion": 2.13106275,
            "RevolutionNumber": "11454"
        },
        {
            "Name": "COSMOS 2476 (744)",
            "Line1": "1 37867U 11064A   24327.41751990  .00000023  00000+0  00000+0 0  9990",
            "Line2": "2 37867  64.9606  92.2230 0022924 231.7716 131.2024  2.13101560101585",
            "SatelliteNumber": "37867",
            "Classification": "U",
            "LaunchYear": "11",
            "LaunchNumber": "064",
            "PieceOfLaunch": "A",
            "EpochYear": "24",
            "EpochDay": 327.4175199,
            "FirstDerivativeMeanMotion": 2.3e-07,
            "SecondDerivativeMeanMotion": "00000+0",
            "BSTAR": "00000+0",
            "SetNumber": "999",
            "Inclination": 64.9606,
            "RAAN": 92.223,
            "Eccentricity": 0.0022924,
            "ArgumentOfPerigee": 231.7716,
            "MeanAnomaly": 131.2024,
            "MeanMotion": 2.1310156,
            "RevolutionNumber": "10158"
        },
        {
            "Name": "COSMOS 2477 (745)",
            "Line1": "1 37868U 11064B   24327.15274097  .00000024  00000+0  00000+0 0  9991",
            "Line2": "2 37868  64.9675  92.3061 0020049 232.0789 106.6791  2.13102966101561",
            "SatelliteNumber": "37868",
            "Classification": "U",
            "LaunchYear": "11",
            "LaunchNumber": "064",
            "PieceOfLaunch": "B",
            "EpochYear": "24",
            "EpochDay": 327.15274097,
            "FirstDerivativeMeanMotion": 2.4e-07,
            "SecondDerivativeMeanMotion": "00000+0",
            "BSTAR": "00000+0",
            "SetNumber": "999",
            "Inclination": 64.9675,
            "RAAN": 92.3061,
            "Eccentricity": 0.0020049,
            "ArgumentOfPerigee": 232.0789,
            "MeanAnomaly": 106.6791,
            "MeanMotion": 2.13102966,
            "RevolutionNumber": "10156"
        },
        {
            "Name": "COSMOS 2475 (743)",
            "Line1": "1 37869U 11064C   24326.77806483  .00000024  00000+0  00000+0 0  9999",
            "Line2": "2 37869  64.9743  92.3352 0024510 248.1372 120.8833  2.13101635101572",
            "SatelliteNumber": "37869",
            "Classification": "U",
            "LaunchYear": "11",
            "LaunchNumber": "064",
            "PieceOfLaunch": "C",
            "EpochYear": "24",
            "EpochDay": 326.77806483,
            "FirstDerivativeMeanMotion": 2.4e-07,
            "SecondDerivativeMeanMotion": "00000+0",
            "BSTAR": "00000+0",
            "SetNumber": "999",
            "Inclination": 64.9743,
            "RAAN": 92.3352,
            "Eccentricity": 0.002451,
            "ArgumentOfPerigee": 248.1372,
            "MeanAnomaly": 120.8833,
            "MeanMotion": 2.13101635,
            "RevolutionNumber": "10157"
        }
    ]
}